OBJECT_NAME,OBJECT_ID,EPOCH,MEAN_MOTION,ECCENTRICITY,INCLINATION,RA_OF_ASC_NODE,ARG_OF_PERICENTER,MEAN_ANOMALY,EPHEMERIS_TYPE,CLASSIFICATION_TYPE,NORAD_CAT_ID,ELEMENT_SET_NO,REV_AT_EPOCH,BSTAR,MEAN_MOTION_DOT,MEAN_MOTION_DDOT
STARLINK-11564 [DTC],2025-027G,2026-06-15T21:14:23.562816,15.70868334,.00023001,43.0014,115.9582,257.0395,103.0216,0,U,62913,999,7859,.93038008E-3,.120832E-2,0
STARLINK-11566 [DTC],2025-027H,2026-06-15T21:22:02.032320,15.70878833,.00023342,43.0019,116.0008,267.1912,92.8689,0,U,62914,999,7863,.10964869E-2,.14293E-2,0
STARLINK-11555 [DTC],2025-027J,2026-06-15T13:45:33.483744,15.70858752,.00011205,43.0032,117.9224,277.8830,82.1911,0,U,62915,999,7858,.12737864E-2,.166438E-2,0
STARLINK-11430 [DTC],2025-027K,2026-06-15T07:53:17.851776,15.71096034,.00018263,43.0005,119.5324,289.0179,71.0491,0,U,62916,999,7854,.18313013E-2,.244181E-2,0
STARLINK-11560 [DTC],2025-027L,2026-06-15T04:04:18.249888,15.70922046,.00016504,42.9994,120.0463,218.9768,141.0981,0,U,62917,999,7848,.13668715E-2,.179394E-2,0
STARLINK-11562 [DTC],2025-027M,2026-06-15T16:00:00.999936,15.70893239,.00016658,43.0012,116.8981,264.0092,90.2665,0,U,62918,999,594,-.10010402E-2,-.127239E-2,0
STARLINK-11457 [DTC],2025-027N,2026-06-15T03:33:43.081056,15.70906062,.00022195,42.9997,119.8722,253.3975,106.6649,0,U,62919,999,7848,.12755856E-2,.167025E-2,0
STARLINK-32921,2025-027P,2026-06-14T15:45:18.658944,15.27595673,.00007817,43.0010,301.1274,278.3507,81.7256,0,U,62920,999,7637,.57433788E-3,.15583E-3,0
STARLINK-32917,2025-027Q,2026-06-15T15:38:00.909024,15.27577262,.00012457,42.9965,295.6901,269.2378,90.8331,0,U,62921,999,7652,.45457346E-3,.12267E-3,0
STARLINK-32916,2025-027R,2026-06-15T01:15:47.548224,15.27653257,.00019685,43.0042,298.9352,271.2162,88.8465,0,U,62922,999,7643,.14345416E-2,.39514E-3,0
STARLINK-32905,2025-027S,2026-06-15T01:47:15.179136,15.27594736,.00022346,42.9941,299.1022,264.6056,95.4541,0,U,62923,999,7643,.92309606E-3,.25239E-3,0
STARLINK-32871,2025-027T,2026-06-15T15:32:27.387744,15.27585746,.00014652,42.9977,295.6525,272.5083,87.5601,0,U,62924,999,7652,.37662428E-3,.10118E-3,0
STARLINK-32920,2025-027U,2026-06-15T01:19:29.328384,15.27602731,.00023942,42.9960,298.9491,271.0813,88.9765,0,U,62925,999,7643,.94368061E-3,.25816E-3,0
STARLINK-32922,2025-027V,2026-06-15T01:41:41.718336,15.27552180,.00016866,43.0003,299.0670,277.7154,82.3506,0,U,62926,999,7643,.72815776E-3,.19812E-3,0
STARLINK-32891,2025-027W,2026-06-14T16:26:01.037472,15.27603347,.00009824,43.0053,301.3308,62.8405,297.2547,0,U,62927,999,7649,.51666084E-3,.13992E-3,0
STARLINK-32728,2025-029A,2026-06-15T15:31:04.674432,15.34400079,.00012931,53.1606,134.7351,84.3412,275.7738,0,U,62948,999,7639,.56402505E-3,.18728E-3,0
STARLINK-32857,2025-029B,2026-06-15T07:57:06.750432,15.34383384,.00010024,53.1582,135.6213,83.0635,277.0481,0,U,62949,999,7635,.57781352E-3,.19186E-3,0
STARLINK-32850,2025-029C,2026-06-15T06:25:07.768128,15.31708634,.0001145,53.1580,138.7639,79.8400,280.2731,0,U,62950,999,7627,.54214E-3,.165E-3,0
STARLINK-32875,2025-029D,2026-06-15T04:46:29.733600,15.34399430,.00011295,53.1585,136.2118,89.3149,270.7983,0,U,62951,999,7630,.60579997E-3,.20146E-3,0
STARLINK-32865,2025-029E,2026-06-15T15:42:10.386432,15.31706336,.00013547,53.1594,136.9069,99.7649,260.3505,0,U,62952,999,7633,.23027297E-3,.6788E-4,0
STARLINK-32884,2025-029F,2026-06-15T08:12:16.634880,15.34389375,.00012182,53.1573,135.6772,70.7727,289.3407,0,U,62953,999,7632,.51043394E-3,.16903E-3,0
STARLINK-32874,2025-029G,2026-06-15T04:52:33.169152,15.34403534,.0001136,53.1579,136.2328,96.4102,263.7030,0,U,62954,999,7630,.53736551E-3,.17825E-3,0
STARLINK-32880,2025-029H,2026-06-15T15:28:43.755168,15.31713481,.00008944,53.1594,136.8514,72.3492,287.7607,0,U,62955,999,7633,.60775337E-3,.18549E-3,0
STARLINK-32815,2025-029J,2026-06-15T05:31:56.723232,15.34399753,.0001241,53.1593,136.4046,87.9712,272.1433,0,U,62956,999,7630,.60201E-3,.20018E-3,0
STARLINK-32879,2025-029K,2026-06-15T08:25:58.333440,15.31710739,.00013313,53.1576,138.5763,99.5285,260.5867,0,U,62957,999,7627,.41925806E-3,.12671E-3,0
STARLINK-32885,2025-029L,2026-06-15T06:47:33.651168,15.34395095,.0001261,53.1576,136.0192,87.3607,272.7540,0,U,62958,999,7630,.46816E-3,.15471E-3,0
STARLINK-32896,2025-029M,2026-06-15T06:36:21.880800,15.30198881,.0001458,53.1579,139.5173,40.6683,319.4426,0,U,62959,999,7625,.55057E-3,.15982E-3,0
STARLINK-32877,2025-029N,2026-06-15T03:19:08.234400,15.30203278,.00013329,53.1578,140.0825,90.4653,269.6500,0,U,62960,999,7621,.5567897E-3,.16169E-3,0
STARLINK-32889,2025-029P,2026-06-15T04:57:44.989344,15.30205973,.00013139,53.1577,139.8019,86.5936,273.5215,0,U,62961,999,7624,.64044967E-3,.1866E-3,0
STARLINK-32858,2025-029Q,2026-06-15T05:06:42.266880,15.30202048,.00012484,53.1574,139.1309,88.5902,271.5242,0,U,62962,999,7623,.5629625E-3,.16352E-3,0
