STARLINK-11564 [DTC]    
1 62913U 25027G   26166.88499494  .00120832  00000+0  93038-3 0  9994
2 62913  43.0014 115.9582 0002300 257.0395 103.0216 15.70868334 78599
STARLINK-11566 [DTC]    
1 62914U 25027H   26166.89030130  .00142930  00000+0  10965-2 0  9994
2 62914  43.0019 116.0008 0002334 267.1912  92.8689 15.70878833 78633
STARLINK-11555 [DTC]    
1 62915U 25027J   26166.57330421  .00166438  00000+0  12738-2 0  9995
2 62915  43.0032 117.9224 0001120 277.8830  82.1911 15.70858752 78580
STARLINK-11430 [DTC]    
1 62916U 25027K   26166.32867884  .00244181  00000+0  18313-2 0  9994
2 62916  43.0005 119.5324 0001826 289.0179  71.0491 15.71096034 78548
STARLINK-11560 [DTC]    
1 62917U 25027L   26166.16965567  .00179394  00000+0  13669-2 0  9996
2 62917  42.9994 120.0463 0001650 218.9768 141.0981 15.70922046 78480
STARLINK-11562 [DTC]    
1 62918U 25027M   26166.66667824 -.00127239  00000+0 -10010-2 0  9997
2 62918  43.0012 116.8981 0001665 264.0092  90.2665 15.70893239  5946
STARLINK-11457 [DTC]    
1 62919U 25027N   26166.14841529  .00167025  00000+0  12756-2 0  9991
2 62919  42.9997 119.8722 0002219 253.3975 106.6649 15.70906062 78482
STARLINK-32921          
1 62920U 25027P   26165.65646596  .00015583  00000+0  57434-3 0  9999
2 62920  43.0010 301.1274 0000781 278.3507  81.7256 15.27595673 76377
STARLINK-32917          
1 62921U 25027Q   26166.65139941  .00012267  00000+0  45457-3 0  9990
2 62921  42.9965 295.6901 0001245 269.2378  90.8331 15.27577262 76526
STARLINK-32916          
1 62922U 25027R   26166.05263366  .00039514  00000+0  14345-2 0  9999
2 62922  43.0042 298.9352 0001968 271.2162  88.8465 15.27653257 76431
STARLINK-32905          
1 62923U 25027S   26166.07448124  .00025239  00000+0  92310-3 0  9997
2 62923  42.9941 299.1022 0002234 264.6056  95.4541 15.27594736 76435
STARLINK-32871          
1 62924U 25027T   26166.64753921  .00010118  00000+0  37662-3 0  9994
2 62924  42.9977 295.6525 0001465 272.5083  87.5601 15.27585746 76527
STARLINK-32920          
1 62925U 25027U   26166.05520056  .00025816  00000+0  94368-3 0  9998
2 62925  42.9960 298.9491 0002394 271.0813  88.9765 15.27602731 76435
STARLINK-32922          
1 62926U 25027V   26166.07062174  .00019812  00000+0  72816-3 0  9996
2 62926  43.0003 299.0670 0001686 277.7154  82.3506 15.27552180 76434
STARLINK-32891          
1 62927U 25027W   26165.68473423  .00013992  00000+0  51666-3 0  9999
2 62927  43.0053 301.3308 0000982  62.8405 297.2547 15.27603347 76495
STARLINK-32728          
1 62948U 25029A   26166.64658188  .00018728  00000+0  56403-3 0  9990
2 62948  53.1606 134.7351 0001293  84.3412 275.7738 15.34400079 76390
STARLINK-32857          
1 62949U 25029B   26166.33132813  .00019186  00000+0  57781-3 0  9998
2 62949  53.1582 135.6213 0001002  83.0635 277.0481 15.34383384 76357
STARLINK-32850          
1 62950U 25029C   26166.26745102  .00016500  00000+0  54214-3 0  9998
2 62950  53.1580 138.7639 0001145  79.8400 280.2731 15.31708634 76275
STARLINK-32875          
1 62951U 25029D   26166.19895525  .00020146  00000+0  60580-3 0  9990
2 62951  53.1585 136.2118 0001129  89.3149 270.7983 15.34399430 76304
STARLINK-32865          
1 62952U 25029E   26166.65428688  .00006788  00000+0  23027-3 0  9995
2 62952  53.1594 136.9069 0001354  99.7649 260.3505 15.31706336 76339
STARLINK-32884          
1 62953U 25029F   26166.34185920  .00016903  00000+0  51043-3 0  9990
2 62953  53.1573 135.6772 0001218  70.7727 289.3407 15.34389375 76323
STARLINK-32874          
1 62954U 25029G   26166.20316168  .00017825  00000+0  53737-3 0  9992
2 62954  53.1579 136.2328 0001136  96.4102 263.7030 15.34403534 76305
STARLINK-32880          
1 62955U 25029H   26166.64495087  .00018549  00000+0  60775-3 0  9993
2 62955  53.1594 136.8514 0000894  72.3492 287.7607 15.31713481 76332
STARLINK-32815          
1 62956U 25029J   26166.23051763  .00020018  00000+0  60201-3 0  9996
2 62956  53.1593 136.4046 0001241  87.9712 272.1433 15.34399753 76309
STARLINK-32879          
1 62957U 25029K   26166.35136960  .00012671  00000+0  41926-3 0  9992
2 62957  53.1576 138.5763 0001331  99.5285 260.5867 15.31710739 76270
STARLINK-32885          
1 62958U 25029L   26166.28302837  .00015471  00000+0  46816-3 0  9997
2 62958  53.1576 136.0192 0001261  87.3607 272.7540 15.34395095 76309
STARLINK-32896          
1 62959U 25029M   26166.27525325  .00015982  00000+0  55057-3 0  9990
2 62959  53.1579 139.5173 0001458  40.6683 319.4426 15.30198881 76250
STARLINK-32877          
1 62960U 25029N   26166.13828975  .00016169  00000+0  55679-3 0  9992
2 62960  53.1578 140.0825 0001332  90.4653 269.6500 15.30203278 76215
STARLINK-32889          
1 62961U 25029P   26166.20677071  .00018660  00000+0  64045-3 0  9995
2 62961  53.1577 139.8019 0001313  86.5936 273.5215 15.30205973 76249
STARLINK-32858          
1 62962U 25029Q   26166.21298920  .00016352  00000+0  56296-3 0  9994
2 62962  53.1574 139.1309 0001248  88.5902 271.5242 15.30202048 76231
